[{"OBJECT_NAME":"STARLINK-34567","OBJECT_ID":"2025-150F","EPOCH":"2026-03-09T13:47:10.199040","MEAN_MOTION":14.98328246,"ECCENTRICITY":0.0003505,"INCLINATION":70.002,"RA_OF_ASC_NODE":134.5852,"ARG_OF_PERICENTER":264.9582,"MEAN_ANOMALY":95.1177,"EPHEMERIS_TYPE":0,"CLASSIFICATION_TYPE":"U","NORAD_CAT_ID":64795,"ELEMENT_SET_NO":999,"REV_AT_EPOCH":3650,"BSTAR":0.0014222,"MEAN_MOTION_DOT":0.00016917,"MEAN_MOTION_DDOT":0},{"OBJECT_NAME":"AISSAT 1","OBJECT_ID":"2010-035C","EPOCH":"2026-03-09T18:13:55.092288","MEAN_MOTION":14.96891223,"ECCENTRICITY":0.00096674,"INCLINATION":98.1015,"RA_OF_ASC_NODE":324.4785,"ARG_OF_PERICENTER":31.9143,"MEAN_ANOMALY":328.2662,"EPHEMERIS_TYPE":0,"CLASSIFICATION_TYPE":"U","NORAD_CAT_ID":36797,"ELEMENT_SET_NO":999,"REV_AT_EPOCH":84934,"BSTAR":0.00027660201,"MEAN_MOTION_DOT":3.114e-5,"MEAN_MOTION_DDOT":0}]
